KUIPER-00071            
1 64818U 25151C   26024.69400476 -.00001315  00000+0 -14364-3 0  9993
2 64818  51.9008 137.6259 0006950  92.1613 268.0145 14.79835018 28751
KUIPER-00072            
1 64819U 25151D   26024.67090601  .00009384  00000+0  12061-2 0  9990
2 64819  51.8968 117.6133 0000533  66.8127 293.2893 14.81717879 29033
KUIPER-00073            
1 64820U 25151E   26024.59277331  .00004719  00000+0  64769-3 0  9990
2 64820  51.9004 138.0688 0003305 132.6715 227.4526 14.79929112 29926
KUIPER-00074            
1 64821U 25151F   26024.67373761  .00007549  00000+0  10167-2 0  9990
2 64821  51.9022 125.2296 0011782 127.2037 233.0002 14.79963038 28921
KUIPER-00075            
1 64822U 25151G   26025.32398001  .00076927  00000+0  18826-2 0  9994
2 64822  51.8744  72.6175 0003280 117.2430 242.8892 15.40087288 29719
KUIPER-00076            
1 64823U 25151H   26025.00852970  .00007856  00000+0  10556-2 0  9997
2 64823  51.9006 126.2404 0001692 152.7536 207.3516 14.80043927 28947
KUIPER-00077            
1 64824U 25151J   26024.66574593  .00009443  00000+0  12669-2 0  9992
2 64824  51.9009 132.7663 0004598  98.3571 261.7913 14.79896811 28820
KUIPER-00078            
1 64825U 25151K   26024.70216826 -.00000017  00000+0  26870-4 0  9990
2 64825  51.8976 130.0981 0001785 166.2842 193.8169 14.79887442 28860
